EARTHCARE               
1 59908U 24101A   24222.25080310  .00024436  00000+0  35293-3 0  9993
2 59908  96.9856 348.7580 0002397 256.0399 104.0591 15.55942714 11236
